UNKNOWN                 
1 81052U          25278.06583012  .00015715  00000+0  42512-2 0  9999
2 81052  65.7725 202.7019 0565000 340.8590  17.1979 13.81715451590820
UNKNOWN                 
1 81069U          25279.46103566  .00003822  00000+0  51339-2 0  9997
2 81069 100.3796 176.5508 0061154 213.4043 146.3230 13.59877996506787
UNKNOWN                 
1 81078U          25279.27196032 -.00000157  00000+0 -34771-2 0  9997
2 81078  65.1150   5.9338 0170129  19.9381  12.1292 11.22448107487054
UNKNOWN                 
1 81111U          25280.42948277  .00013341  00000+0  27813-2 0  9996
2 81111  62.8697  81.4110 3874530 354.6578   2.2100  7.53207978266945
UNKNOWN                 
1 81134U          25277.68159885  .00000154  00000+0  53751-3 0  9993
2 81134  90.2532   2.4573 0026515 207.5400 152.4314 12.92951087453688
UNKNOWN                 
1 81161U          25276.78907906  .00001781  00000+0  18822-2 0  9994
2 81161 100.4264 112.3930 0061826  98.4468 262.3692 13.75340277546517
UNKNOWN                 
1 81219U          25278.63664019  .00000965  00000+0  88775-3 0  9997
2 81219  82.9246  57.2857 0021516  50.3266 309.9787 13.81703125598113
UNKNOWN                 
1 81228U          25280.13996148  .00009764  00000+0  30578-2 0  9999
2 81228  70.5219  66.0315 0061992 103.4239 257.3814 14.39730683616509
UNKNOWN                 
1 81254U          25278.40811071  .00003837  00000+0  25439-2 0  9991
2 81254 100.3952 331.1704 0072915 250.2419 109.0867 14.00881074603326
UNKNOWN                 
1 81279U          25279.12227977  .00001919  00000+0  74785-3 0  9992
2 81279  98.1387 343.9623 0207514 222.8661 135.6180 14.19675834453005
UNKNOWN                 
1 81301U          25279.94599747  .00000338  00000+0  40591-3 0  9997
2 81301  66.7569  95.3993 0095634 274.3070 163.1628 13.76646049597163
UNKNOWN                 
1 81311U          25280.38853102  .00000844  00000+0  18135-3 0  9997
2 81311  98.7427 334.4999 0130999 327.7806  92.7486 14.56380666629938
UNKNOWN                 
1 81317U          25277.43968356  .00000148  00000+0  35634-3 0  9993
2 81317  67.1391 329.2047 0205167  83.7439 301.2762 13.37965348579361
UNKNOWN                 
1 81323U          25266.23724836  .00044412  00000+0  61914-2 0  9990
2 81323  65.7520 253.5731 0352076 355.6749   4.1322 14.42906774101426
UNKNOWN                 
1 81329U          25278.45172221  .00002488  00000+0  94164-3 0  9999
2 81329  65.8223 286.2862 0828539  61.1663 306.9983 13.21678000569054
UNKNOWN                 
1 81341U          25280.32449874 -.00004549  00000+0 -11095-1 0  9995
2 81341  99.4969 231.8724 0388293 303.5957  52.8649 12.96820169514814
UNKNOWN                 
1 81343U          25280.13660070  .00009080  00000+0  67991-3 0  9990
2 81343  85.8713 234.9018 0011221 128.8486 231.3750 15.02547188444312
UNKNOWN                 
1 81359U          25279.79888334  .00001442  00000+0  14239-2 0  9992
2 81359  66.7991 212.1874 0111525   7.8887 352.3905 13.78676721596256
UNKNOWN                 
1 81366U          25279.12527876  .00001579  00000+0  58791-3 0  9991
2 81366  65.8830 231.9638 0711564 114.6865 252.9956 13.44915365 56867
UNKNOWN                 
1 81371U          25279.99612437  .00005950  00000+0  97522-3 0  9992
2 81371  98.8164  11.1043 0071289 211.7168 147.9732 14.69466788632037
UNKNOWN                 
1 81386U          25278.35037741  .00006271  00000+0  21125-2 0  9998
2 81386  71.0476 144.7700 0091535 195.0356 164.8055 14.35027032614421
UNKNOWN                 
1 81390U          25278.97290236 -.00000336  00000+0 -21430-2 0  9998
2 81390 103.1050 163.1805 0174396 266.1514  91.9588 12.35692392491727
UNKNOWN                 
1 81392U          25279.18398404  .00003819  00000+0  36414-2 0  9995
2 81392 100.3913 260.6516 0035082 209.2885 166.6661 13.81086843592853
UNKNOWN                 
1 81405U          25277.89266627  .00002231  00000+0  17087-2 0  9999
2 81405  99.4773 324.9633 0159918  48.4020 313.0715 13.88584199552244
UNKNOWN                 
1 81406U          25280.46016791  .00002918  00000+0  11996-2 0  9997
2 81406  65.8099 303.8811 0864606 349.0311   9.2871 13.11595658524982
UNKNOWN                 
1 81427U          25279.64977324  .00001056  00000+0  64073-3 0  9993
2 81427  98.7539 163.9352 0083151 227.1671 132.2490 14.06776068542331
UNKNOWN                 
1 81438U          25274.35593822  .00004595  00000+0  67812-2 0  9999
2 81438 100.3039 143.0096 0049501 263.5432  96.0065 13.54136619582144
UNKNOWN                 
1 81439U          25280.26650150  .00000259  00000+0  84809-3 0  9994
2 81439  67.1589 270.3485 0609091 244.0281 109.6787 12.62595326253502
UNKNOWN                 
1 81449U          25280.14386610  .00045782  00000+0  46797-2 0  9992
2 81449  66.7952 184.1478 0034136 195.0532 164.9585 14.89875361623605
UNKNOWN                 
1 81478U          25280.26837221  .00003596  00000+0  13243-2 0  9993
2 81478  98.9459 190.5330 0146176 190.5719 302.2571 14.27460448613451
UNKNOWN                 
1 81488U          25280.39455426  .00000385  00000+0  60814-3 0  9991
2 81488 100.0090 152.0451 0044368 163.4692  15.6671 13.56473033587635
UNKNOWN                 
1 81497U          25280.48722515  .00004692  00000+0  42929-2 0  9998
2 81497 100.3018 168.8794 0026382 185.0792 299.0757 13.83457824207137
UNKNOWN                 
1 81499U          25278.45904347  .00003634  00000+0  10151-2 0  9996
2 81499  74.0520 348.5336 0000710 348.1913  11.9229 14.46561448472549
UNKNOWN                 
1 81535U          25280.02709854  .00001260  00000+0  53489-3 0  9994
2 81535  98.2049   7.7022 0235212 341.9631  17.3299 14.13157678377973
UNKNOWN                 
1 81536U          25279.89397868  .00000718  00000+0  46484-2 0  9999
2 81536 101.9551 140.1994 0030516  27.5397 351.8158 12.55750962543424
UNKNOWN                 
1 81537U          25280.56472296  .00000404  00000+0  26208-3 0  9990
2 81537  71.0375 246.1442 0079757 252.8284 106.4091 14.07024533611152
UNKNOWN                 
1 81552U          25279.75686926  .00001484  00000+0  32810-2 0  9997
2 81552  99.0568 215.6544 0257101 178.4614 181.7353 13.17996466570422
UNKNOWN                 
1 81599U          25273.74987968  .00000680  00000+0  13060-2 0  9994
2 81599  67.3012  78.8375 0250853 137.8864 247.5352 13.31330444575361
UNKNOWN                 
1 81605U          25277.37967168  .00000204  00000+0  12547-2 0  9996
2 81605  56.4367  50.0185 0167158  42.0751 319.2873 12.81144416177313
UNKNOWN                 
1 81614U          25269.26208707  .00006612  00000+0  41487-1 0  9995
2 81614 101.8547 267.5381 0369505 298.0104  58.4039 12.36130495528404
UNKNOWN                 
1 81615U          25278.57500598  .00001891  00000+0  67547-3 0  9994
2 81615  65.8260 220.9187 0779454 168.3756 193.6509 13.33546861573773
UNKNOWN                 
1 81617U          25278.92614697  .00000492  00000+0  31770-2 0  9995
2 81617 101.2610  96.3343 0036764   8.9085 351.2637 12.57465542544584
UNKNOWN                 
1 81624U          25277.93627322  .00009745  00000+0  15793-2 0  9999
2 81624  66.9793 356.8229 0074690 289.2630  70.0421 14.69707947629593
UNKNOWN                 
1 81640U          25280.27513963  .00000323  00000+0  35338-3 0  9994
2 81640  65.8247 267.7374 0976120 104.9908 266.1104 12.57143837501721
UNKNOWN                 
1 81652U          25278.15262303  .00000976  00000+0  11946-2 0  9992
2 81652 102.1512 152.4214 0365021 152.9850   1.1161 13.44227228569434
UNKNOWN                 
1 81667U          25277.41636064  .00004250  00000+0  11639-2 0  9993
2 81667  74.0414 166.2201 0014676 121.8072 238.4518 14.47399047446613
UNKNOWN                 
1 81674U          25277.74303640  .00001800  00000+0  10653-2 0  9991
2 81674  66.8235 177.9740 0033827 269.5387 123.0626 14.09674507603996
UNKNOWN                 
1 81683U          25280.27153035  .00004862  00000+0  10806-2 0  9995
2 81683  81.2201   5.4324 0025937 140.6576 219.6511 14.56698934626188
UNKNOWN                 
1 81693U          25275.13171742  .00002045  00000+0  14682-1 0  9996
2 81693 101.0841 344.4491 0385702 217.8367 139.4997 12.25833479958998
UNKNOWN                 
1 81745U          25279.96288229  .00003074  00000+0  99407-3 0  9991
2 81745  71.0028 173.6213 0007001 303.8186  56.2283 14.39829811620139
UNKNOWN                 
1 81749U          25274.35813043  .00000154  00000+0  64986-3 0  9991
2 81749  99.6948 314.5820 0369570   8.8996   3.0787 12.77575986552766
UNKNOWN                 
1 81775U          25279.96497145  .00008219  00000+0  26250-2 0  9994
2 81775  82.9160 279.5732 0021274  94.7501 265.6121 14.39470338615662
UNKNOWN                 
1 81792U          25280.19872731  .00003974  00000+0  14143-2 0  9999
2 81792  65.8253 245.3597 0896896 311.7169  41.0407 13.10536328 71317
UNKNOWN                 
1 81812U          25280.21637875  .00004540  00000+0  27921-1 0  9990
2 81812 103.8146 183.2390 0374511 349.5912   9.7548 12.37481364532333
UNKNOWN                 
1 81816U          25279.50324260  .00001051  00000+0  81849-3 0  9990
2 81816  66.2368 103.7233 0179254 283.1300  74.9824 13.89132401600003
UNKNOWN                 
1 81819U          25277.21568205  .00000978  00000+0  69464-2 0  9993
2 81819 102.1730  13.4192 0035860 240.8132 118.9345 12.47491659539348
UNKNOWN                 
1 81824U          25280.06144978  .00005869  00000+0  20993-2 0  9991
2 81824  65.8438 159.1960 0033804   1.7961 358.3247 14.34402925615022
UNKNOWN                 
1 81833U          25280.21852230  .00000375  00000+0  13328-2 0  9996
2 81833  90.2461   1.4439 0028267 193.5770 166.4591 12.93689368443913
UNKNOWN                 
1 81838U          25259.02806890  .00005645  00000+0  13092-2 0  9990
2 81838  67.7607 135.2991 0034231 101.7456 324.7467 14.55293198620569
